{
  "type": "FeatureCollection",
  "features": [
    {
      "type": "Feature",
      "properties": {
        "norad_id": 44333,
        "name": "AT&T T-16",
        "group": "intelsat",
        "lat": -0.02385707970355101,
        "lon": -101.49578405010298,
        "alt_km": 35787.088976512925,
        "timestamp": "2025-12-07T18:50:16.392133+00:00",
        "meta_object_name": "AT&T T-16",
        "meta_object_id": "2019-034A",
        "meta_epoch": "2025-12-07T06:18:27.072576",
        "meta_mean_motion": 1.00268339,
        "meta_eccentricity": 4.47e-05,
        "meta_inclination": 0.0258,
        "meta_ra_of_asc_node": 61.8789,
        "meta_arg_of_pericenter": 105.7862,
        "meta_mean_anomaly": 262.3772,
        "meta_ephemeris_type": 0,
        "meta_classification_type": "U",
        "meta_norad_cat_id": 44333,
        "meta_element_set_no": 999,
        "meta_rev_at_epoch": 2370,
        "meta_bstar": 0,
        "meta_mean_motion_dot": -1.1e-06,
        "meta_mean_motion_ddot": 0,
        "tle_line1": "1 44333U 19034A   25341.26281334 -.00000110  00000+0  00000+0 0  9999",
        "tle_line2": "2 44333   0.0258  61.8789 0000447 105.7862 262.3772  1.00268339 23700"
      },
      "geometry": {
        "type": "Point",
        "coordinates": [
          -101.49578405010298,
          -0.02385707970355101
        ]
      }
    },
    {
      "type": "Feature",
      "properties": {
        "norad_id": 44476,
        "name": "INTELSAT 39 (IS-39)",
        "group": "intelsat",
        "lat": 0.037684781811227856,
        "lon": 61.29177747612558,
        "alt_km": 35786.77350697358,
        "timestamp": "2025-12-07T18:50:16.392144+00:00",
        "meta_object_name": "INTELSAT 39 (IS-39)",
        "meta_object_id": "2019-049B",
        "meta_epoch": "2025-12-06T22:31:13.300896",
        "meta_mean_motion": 1.00267191,
        "meta_eccentricity": 8.792e-05,
        "meta_inclination": 0.0164,
        "meta_ra_of_asc_node": 319.6906,
        "meta_arg_of_pericenter": 183.4518,
        "meta_mean_anomaly": 332.5825,
        "meta_ephemeris_type": 0,
        "meta_classification_type": "U",
        "meta_norad_cat_id": 44476,
        "meta_element_set_no": 999,
        "meta_rev_at_epoch": 2320,
        "meta_bstar": 0,
        "meta_mean_motion_dot": 4e-07,
        "meta_mean_motion_ddot": 0,
        "tle_line1": "1 44476U 19049B   25340.93834839  .00000040  00000+0  00000+0 0  9991",
        "tle_line2": "2 44476   0.0164 319.6906 0000879 183.4518 332.5825  1.00267191 23208"
      },
      "geometry": {
        "type": "Point",
        "coordinates": [
          61.29177747612558,
          0.037684781811227856
        ]
      }
    },
    {
      "type": "Feature",
      "properties": {
        "norad_id": 46114,
        "name": "GALAXY 30 (G-30)",
        "group": "intelsat",
        "lat": -0.039413968648475864,
        "lon": -125.6506038010633,
        "alt_km": 35776.59068972829,
        "timestamp": "2025-12-07T18:50:16.392156+00:00",
        "meta_object_name": "GALAXY 30 (G-30)",
        "meta_object_id": "2020-056C",
        "meta_epoch": "2025-12-07T06:11:27.743136",
        "meta_mean_motion": 1.00270615,
        "meta_eccentricity": 0.00024689,
        "meta_inclination": 0.0168,
        "meta_ra_of_asc_node": 334.3319,
        "meta_arg_of_pericenter": 280.5472,
        "meta_mean_anomaly": 149.2672,
        "meta_ephemeris_type": 0,
        "meta_classification_type": "U",
        "meta_norad_cat_id": 46114,
        "meta_element_set_no": 999,
        "meta_rev_at_epoch": 1936,
        "meta_bstar": 0,
        "meta_mean_motion_dot": 4.2e-07,
        "meta_mean_motion_ddot": 0,
        "tle_line1": "1 46114U 20056C   25341.25795999  .00000042  00000+0  00000+0 0  9993",
        "tle_line2": "2 46114   0.0168 334.3319 0002468 280.5472 149.2672  1.00270615 19369"
      },
      "geometry": {
        "type": "Point",
        "coordinates": [
          -125.6506038010633,
          -0.039413968648475864
        ]
      }
    },
    {
      "type": "Feature",
      "properties": {
        "norad_id": 54026,
        "name": "GALAXY 33 (G-33)",
        "group": "intelsat",
        "lat": -0.015076001026442581,
        "lon": -133.65126793025752,
        "alt_km": 35777.91226184728,
        "timestamp": "2025-12-07T18:50:16.392168+00:00",
        "meta_object_name": "GALAXY 33 (G-33)",
        "meta_object_id": "2022-128A",
        "meta_epoch": "2025-12-07T07:02:44.849760",
        "meta_mean_motion": 1.0027046,
        "meta_eccentricity": 0.00022298,
        "meta_inclination": 0.022,
        "meta_ra_of_asc_node": 46.5976,
        "meta_arg_of_pericenter": 205.519,
        "meta_mean_anomaly": 156.8866,
        "meta_ephemeris_type": 0,
        "meta_classification_type": "U",
        "meta_norad_cat_id": 54026,
        "meta_element_set_no": 999,
        "meta_rev_at_epoch": 1181,
        "meta_bstar": 0,
        "meta_mean_motion_dot": 8.4e-07,
        "meta_mean_motion_ddot": 0,
        "tle_line1": "1 54026U 22128A   25341.29357465  .00000084  00000+0  00000+0 0  9998",
        "tle_line2": "2 54026   0.0220  46.5976 0002229 205.5190 156.8866  1.00270460 11818"
      },
      "geometry": {
        "type": "Point",
        "coordinates": [
          -133.65126793025752,
          -0.015076001026442581
        ]
      }
    },
    {
      "type": "Feature",
      "properties": {
        "norad_id": 54027,
        "name": "GALAXY 34 (G-34)",
        "group": "intelsat",
        "lat": -0.03905080795333917,
        "lon": -129.58121234596263,
        "alt_km": 35781.19136703004,
        "timestamp": "2025-12-07T18:50:16.392180+00:00",
        "meta_object_name": "GALAXY 34 (G-34)",
        "meta_object_id": "2022-128B",
        "meta_epoch": "2025-12-07T06:10:20.350272",
        "meta_mean_motion": 1.0027003,
        "meta_eccentricity": 0.00013342,
        "meta_inclination": 0.0204,
        "meta_ra_of_asc_node": 351.7204,
        "meta_arg_of_pericenter": 257.4803,
        "meta_mean_anomaly": 150.7295,
        "meta_ephemeris_type": 0,
        "meta_classification_type": "U",
        "meta_norad_cat_id": 54027,
        "meta_element_set_no": 999,
        "meta_rev_at_epoch": 1198,
        "meta_bstar": 0,
        "meta_mean_motion_dot": 0,
        "meta_mean_motion_ddot": 0,
        "tle_line1": "1 54027U 22128B   25341.25717998  .00000000  00000+0  00000+0 0  9994",
        "tle_line2": "2 54027   0.0204 351.7204 0001334 257.4803 150.7295  1.00270030 11989"
      },
      "geometry": {
        "type": "Point",
        "coordinates": [
          -129.58121234596263,
          -0.03905080795333917
        ]
      }
    },
    {
      "type": "Feature",
      "properties": {
        "norad_id": 54243,
        "name": "GALAXY 31 (G-31)",
        "group": "intelsat",
        "lat": -0.011465876663416887,
        "lon": -121.64592274068701,
        "alt_km": 35779.00147317247,
        "timestamp": "2025-12-07T18:50:16.392191+00:00",
        "meta_object_name": "GALAXY 31 (G-31)",
        "meta_object_id": "2022-153A",
        "meta_epoch": "2025-12-07T06:12:42.623424",
        "meta_mean_motion": 1.00271085,
        "meta_eccentricity": 0.00019672,
        "meta_inclination": 0.019,
        "meta_ra_of_asc_node": 75.829,
        "meta_arg_of_pericenter": 192.1195,
        "meta_mean_anomaly": 140.5155,
        "meta_ephemeris_type": 0,
        "meta_classification_type": "U",
        "meta_norad_cat_id": 54243,
        "meta_element_set_no": 999,
        "meta_rev_at_epoch": 520,
        "meta_bstar": 0,
        "meta_mean_motion_dot": 1.8e-07,
        "meta_mean_motion_ddot": 0,
        "tle_line1": "1 54243U 22153A   25341.25882666  .00000018  00000+0  00000+0 0  9996",
        "tle_line2": "2 54243   0.0190  75.8290 0001967 192.1195 140.5155  1.00271085  5204"
      },
      "geometry": {
        "type": "Point",
        "coordinates": [
          -121.64592274068701,
          -0.011465876663416887
        ]
      }
    },
    {
      "type": "Feature",
      "properties": {
        "norad_id": 54244,
        "name": "GALAXY 32 (G-32)",
        "group": "intelsat",
        "lat": -0.029492038886947645,
        "lon": -91.64759169345602,
        "alt_km": 35776.470245738055,
        "timestamp": "2025-12-07T18:50:16.392203+00:00",
        "meta_object_name": "GALAXY 32 (G-32)",
        "meta_object_id": "2022-153B",
        "meta_epoch": "2025-12-07T06:21:11.809728",
        "meta_mean_motion": 1.00273035,
        "meta_eccentricity": 0.00026752,
        "meta_inclination": 0.0108,
        "meta_ra_of_asc_node": 324.2111,
        "meta_arg_of_pericenter": 338.9288,
        "meta_mean_anomaly": 137.4527,
        "meta_ephemeris_type": 0,
        "meta_classification_type": "U",
        "meta_norad_cat_id": 54244,
        "meta_element_set_no": 999,
        "meta_rev_at_epoch": 1122,
        "meta_bstar": 0,
        "meta_mean_motion_dot": -1.7e-06,
        "meta_mean_motion_ddot": 0,
        "tle_line1": "1 54244U 22153B   25341.26472002 -.00000170  00000+0  00000+0 0  9997",
        "tle_line2": "2 54244   0.0108 324.2111 0002675 338.9288 137.4527  1.00273035 11221"
      },
      "geometry": {
        "type": "Point",
        "coordinates": [
          -91.64759169345602,
          -0.029492038886947645
        ]
      }
    }
  ]
}